CBERS 4                 
1 40336U 14079A   20142.20273877 -.00000021  00000-0  81742-5 0  9993
2 40336  98.5623 214.0645 0001326 116.0770 244.0555 14.35412285285776
CZ-4B R/B               
1 40337U 14079B   20141.74494422  .00000200  00000-0  22079-4 0  9998
2 40337  98.4629  25.5328 0177633  39.0362 322.3518 14.89364771296272
